H1 CPF 01  gfz 2021 07 18 12  6992 tandemx   
H2 1003001  6202 36605    2021 07 18 12 59 42 2021 07 23 00 00 42   120 1 1  0 0 0
H9
10 0 59415   6462.000000  0   -1193432.631   -410280.674   6760936.275
10 0 59415   6582.000000  0    -789346.277    414630.869   6819562.323
10 0 59415   6702.000000  0    -357178.299   1224990.441   6758361.787
10 0 59415   6822.000000  0      95149.466   2006236.077   6578404.397
10 0 59415   6942.000000  0     559113.454   2744452.939   6282833.878
10 0 59415   7062.000000  0    1025748.108   3426621.116   5876816.144
10 0 59415   7182.000000  0    1485817.813   4040847.667   5367454.559
10 0 59415   7302.000000  0    1929998.591   4576578.528   4763671.730
10 0 59415   7422.000000  0    2349067.120   5024786.646   4076058.628
10 0 59415   7542.000000  0    2734091.967   5378130.133   3316692.546
10 0 59415   7662.000000  0    3076624.030   5631081.136   2498928.939
10 0 59415   7782.000000  0    3368882.378   5780021.510   1637163.388
10 0 59415   7902.000000  0    3603927.760   5823296.327    746572.252
10 0 59415   8022.000000  0    3775821.061   5761229.585   -157161.239
10 0 59415   8142.000000  0    3879763.752   5596098.991  -1058131.849
10 0 59415   8262.000000  0    3912215.001   5332071.468  -1940500.207
10 0 59415   8382.000000  0    3870983.754   4975101.511  -2788778.906
10 0 59415   8502.000000  0    3755292.317   4532794.176  -3588110.157
10 0 59415   8622.000000  0    3565810.333   4014236.875  -4324528.076
10 0 59415   8742.000000  0    3304660.084   3429806.422  -4985200.461
10 0 59415   8862.000000  0    2975392.889   2790955.103  -5558647.892
10 0 59415   8982.000000  0    2582937.183   2109980.678  -6034934.542
10 0 59415   9102.000000  0    2133520.561   1399786.732  -6405829.870
10 0 59415   9222.000000  0    1634567.658    673637.773  -6664938.422
10 0 59415   9342.000000  0    1094577.371    -55085.173  -6807799.219
10 0 59415   9462.000000  0     522978.559   -773126.630  -6831955.777
10 0 59415   9582.000000  0     -70032.525  -1467592.584  -6736992.107
10 0 59415   9702.000000  0    -673668.954  -2126175.011  -6524538.416
10 0 59415   9822.000000  0   -1276744.349  -2737365.030  -6198247.772
10 0 59415   9942.000000  0   -1867875.356  -3290651.829  -5763739.689
10 0 59415  10062.000000  0   -2435691.555  -3776702.627  -5228513.283
10 0 59415  10182.000000  0   -2969051.845  -4187523.519  -4601830.563
10 0 59415  10302.000000  0   -3457263.473  -4516597.056  -3894566.996
10 0 59415  10422.000000  0   -3890297.552  -4758992.394  -3119032.051
10 0 59415  10542.000000  0   -4258997.890  -4911446.606  -2288762.129
10 0 59415  10662.000000  0   -4555278.044  -4972414.038  -1418287.605
10 0 59415  10782.000000  0   -4772301.211  -4942082.148   -522878.060
10 0 59415  10902.000000  0   -4904638.084  -4822352.902    381729.600
10 0 59415  11022.000000  0   -4948398.423  -4616789.516   1279615.128
10 0 59415  11142.000000  0   -4901331.840  -4330528.381   2154964.805
10 0 59415  11262.000000  0   -4762894.894  -3970158.718   2992359.130
10 0 59415  11382.000000  0   -4534283.546  -3543573.726   3777052.066
10 0 59415  11502.000000  0   -4218430.275  -3059797.237   4495236.785
10 0 59415  11622.000000  0   -3819964.907  -2528789.298   5134291.481
10 0 59415  11742.000000  0   -3345142.392  -1961237.744   5682999.437
10 0 59415  11862.000000  0   -2801740.005  -1368340.936   6131743.074
10 0 59415  11982.000000  0   -2198924.528   -761584.124   6472669.185
10 0 59415  12102.000000  0   -1547091.838   -152513.962   6699820.657
10 0 59415  12222.000000  0    -857683.592    447481.025   6809232.731
10 0 59415  12342.000000  0    -142986.055   1027381.736   6798997.621
10 0 59415  12462.000000  0     584088.522   1576740.374   6669295.989
10 0 59415  12582.000000  0    1310234.722   2085868.815   6422394.007
10 0 59415  12702.000000  0    2021996.724   2546009.411   6062605.392
10 0 59415  12822.000000  0    2706016.998   2949486.300   5596221.225
10 0 59415  12942.000000  0    3349288.834   3289836.332   5031406.836
10 0 59415  13062.000000  0    3939407.146   3561916.056   4378063.445
10 0 59415  13182.000000  0    4464810.163   3761981.748   3647660.005
10 0 59415  13302.000000  0    4915014.285   3887744.083   2853036.533
10 0 59415  13422.000000  0    5280829.270   3938391.645   2008175.722
10 0 59415  13542.000000  0    5554550.951   3914583.950   1127954.444
10 0 59415  13662.000000  0    5730126.755   3818414.710    227875.349
10 0 59415  13782.000000  0    5803288.866   3653344.890   -676214.843
10 0 59415  13902.000000  0    5771651.207   3424107.750  -1568413.120
10 0 59415  14022.000000  0    5634768.525   3136588.210  -2433048.050
10 0 59415  14142.000000  0    5394155.854   2797680.458  -3254960.903
10 0 59415  14262.000000  0    5053269.931   2415127.626  -4019774.606
10 0 59415  14382.000000  0    4617452.450   1997347.144  -4714146.660
10 0 59415  14502.000000  0    4093835.059   1553245.634  -5325997.841
10 0 59415  14622.000000  0    3491213.274   1092030.277  -5844714.105
10 0 59415  14742.000000  0    2819890.691    623019.983  -6261321.258
10 0 59415  14862.000000  0    2091496.555    155459.773  -6568628.682
10 0 59415  14982.000000  0    1318782.627   -301657.235  -6761341.733
10 0 59415  15102.000000  0     515401.641   -739758.758  -6836144.913
10 0 59415  15222.000000  0    -304331.437  -1150850.006  -6791751.781
10 0 59415  15342.000000  0   -1125687.838  -1527655.068  -6628923.699
10 0 59415  15462.000000  0   -1933783.226  -1863742.585  -6350459.225
10 0 59415  15582.000000  0   -2713841.657  -2153633.990  -5961150.763
10 0 59415  15702.000000  0   -3451459.978  -2392892.020  -5467710.790
10 0 59415  15822.000000  0   -4132872.358  -2578190.066  -4878668.632
10 0 59415  15942.000000  0   -4745209.957  -2707359.736  -4204234.303
10 0 59415  16062.000000  0   -5276748.754  -2779415.263  -3456131.854
10 0 59415  16182.000000  0   -5717142.078  -2794554.329  -2647403.930
10 0 59415  16302.000000  0   -6057631.734  -2754134.387  -1792188.986
10 0 59415  16422.000000  0   -6291231.833  -2660625.074   -905475.280
10 0 59415  16542.000000  0   -6412880.874  -2517536.996     -2835.389
10 0 59415  16662.000000  0   -6419557.107  -2329328.364    899852.973
10 0 59415  16782.000000  0   -6310354.368  -2101291.631   1786694.903
10 0 59415  16902.000000  0   -6086513.665  -1839422.856   2642068.266
10 0 59415  17022.000000  0   -5751411.172  -1550277.203   3450906.731
10 0 59415  17142.000000  0   -5310504.414  -1240814.451   4198972.951
10 0 59415  17262.000000  0   -4771234.017   -918237.941   4873113.673
10 0 59415  17382.000000  0   -4142888.921   -589832.386   5461489.980
10 0 59415  17502.000000  0   -3436438.535   -262803.942   5953783.598
10 0 59415  17622.000000  0   -2664332.413     55875.017   6341374.443
10 0 59415  17742.000000  0   -1840273.245    359611.476   6617485.578
10 0 59415  17862.000000  0    -978968.769    642324.677   6777295.377
10 0 59415  17982.000000  0     -95867.281    898565.973   6818016.122
10 0 59415  18102.000000  0     793119.191   1123622.534   6738939.019
10 0 59415  18222.000000  0    1671900.535   1313603.912   6541445.880
10 0 59415  18342.000000  0    2524498.885   1465509.646   6228986.233
10 0 59415  18462.000000  0    3335338.950   1577276.617   5807021.415
10 0 59415  18582.000000  0    4089535.297   1647805.786   5282934.421
10 0 59415  18702.000000  0    4773168.596   1676967.902   4665906.347
10 0 59415  18822.000000  0    5373549.212   1665588.972   3966763.260
10 0 59415  18942.000000  0    5879463.650   1615414.300   3197789.056
10 0 59415  19062.000000  0    6281391.874   1529052.087   2372509.205
10 0 59415  19182.000000  0    6571696.235   1409897.163   1505452.296
10 0 59415  19302.000000  0    6744774.580   1262037.706    611888.450
10 0 59415  19422.000000  0    6797173.124   1090146.676   -292446.459
10 0 59415  19542.000000  0    6727657.407    899360.560  -1191637.335
10 0 59415  19662.000000  0    6537236.235    695148.017  -2069878.793
10 0 59415  19782.000000  0    6229141.872    483172.100  -2911759.650
10 0 59415  19902.000000  0    5808766.095    269150.792  -3702538.462
10 0 59415  20022.000000  0    5283554.217     58718.593  -4428403.938
10 0 59415  20142.000000  0    4662859.176   -142707.362  -5076713.892
10 0 59415  20262.000000  0    3957762.778   -330053.054  -5636208.173
10 0 59415  20382.000000  0    3180868.936   -498702.872  -6097195.596
10 0 59415  20502.000000  0    2346071.103   -644602.689  -6451711.965
10 0 59415  20622.000000  0    1468300.195   -764347.703  -6693645.207
10 0 59415  20742.000000  0     563259.312   -855255.089  -6818830.684
10 0 59415  20862.000000  0    -352853.904   -915419.117  -6825115.516
10 0 59415  20982.000000  0   -1263630.553   -943748.354  -6712390.698
10 0 59415  21102.000000  0   -2152737.510   -939984.973  -6482593.446
10 0 59415  21222.000000  0   -3004204.000   -904705.314  -6139676.418
10 0 59415  21342.000000  0   -3802701.723   -839302.330  -5689547.040
10 0 59415  21462.000000  0   -4533819.619   -745949.963  -5139977.567
10 0 59415  21582.000000  0   -5184326.459   -627549.404  -4500481.846
10 0 59415  21702.000000  0   -5742415.928   -487658.928  -3782162.241
10 0 59415  21822.000000  0   -6197931.300   -330407.730  -2997526.742
10 0 59415  21942.000000  0   -6542562.224   -160394.831  -2160277.209
10 0 59415  22062.000000  0   -6770009.847     17423.578  -1285073.534
10 0 59415  22182.000000  0   -6876115.895    197857.696   -387275.069
10 0 59415  22302.000000  0   -6858947.653    375613.997    517335.613
10 0 59415  22422.000000  0   -6718839.062    545428.855   1412836.434
10 0 59415  22542.000000  0   -6458388.072    702202.010   2283454.619
10 0 59415  22662.000000  0   -6082407.595    841126.713   3113854.061
10 0 59415  22782.000000  0   -5597830.910    957813.191   3889413.810
10 0 59415  22902.000000  0   -5013574.838   1048402.019   4596490.547
99
